0 FENGYUN 1C DEB
1 30945U 99025BAK 13281.54057572  .00001803  00000-0  11178-2 0  9943
2 30945 099.3244 019.5227 0043078 227.7609 257.6903 14.06069862335987
0 FENGYUN 1C DEB
1 30945U 99025BAK 13286.74094927  .00002093  00000-0  12921-2 0  9966
2 30945 099.3258 024.8758 0043358 213.8310 300.9995 14.06095060336710
0 FENGYUN 1C DEB
1 30945U 99025BAK 13290.20281691  .00002100  00000-0  12960-2 0  9971
2 30945 099.3255 028.4400 0043398 204.3932 184.7441 14.06115859337208
0 FENGYUN 1C DEB
1 30945U 99025BAK 13292.78881341  .00002357  00000-0  14505-2 0  9986
2 30945 099.3254 031.1016 0043406 197.2692 315.1239 14.06125779337560
0 FENGYUN 1C DEB
1 30945U 99025BAK 13295.26205689  .00002740  00000-0  16808-2 0  9992
2 30945 099.3246 033.6479 0043494 190.6862 234.6152 14.06136318337913
